[{"OBJECT_NAME":"PAKTES 1A","OBJECT_ID":"2018-056A","EPOCH":"2026-03-10T00:00:36.622368","MEAN_MOTION":14.98554284,"ECCENTRICITY":0.00218522,"INCLINATION":98.1121,"RA_OF_ASC_NODE":221.3801,"ARG_OF_PERICENTER":79.2607,"MEAN_ANOMALY":281.1073,"EPHEMERIS_TYPE":0,"CLASSIFICATION_TYPE":"U","NORAD_CAT_ID":43529,"ELEMENT_SET_NO":999,"REV_AT_EPOCH":41706,"BSTAR":0.00036888675,"MEAN_MOTION_DOT":4.376e-5,"MEAN_MOTION_DDOT":0},{"OBJECT_NAME":"STARLINK-30557","OBJECT_ID":"2023-160N","EPOCH":"2026-03-09T01:19:54.971904","MEAN_MOTION":15.02538542,"ECCENTRICITY":9.696e-5,"INCLINATION":43.0007,"RA_OF_ASC_NODE":83.6006,"ARG_OF_PERICENTER":276.5853,"MEAN_ANOMALY":83.4879,"EPHEMERIS_TYPE":0,"CLASSIFICATION_TYPE":"U","NORAD_CAT_ID":58087,"ELEMENT_SET_NO":999,"REV_AT_EPOCH":13282,"BSTAR":-3.776628e-6,"MEAN_MOTION_DOT":-2.55e-6,"MEAN_MOTION_DDOT":0}]
